{
    "links": {
        "self": "http://www.neowsapp.com/rest/v1/neo/3836744?api_key=iIulBulltgU6a56xZRHN4H3l9WmuAYTsLGpBGhQ2"
    },
    "id": "3836744",
    "neo_reference_id": "3836744",
    "name": "(2018 XG1)",
    "designation": "2018 XG1",
    "nasa_jpl_url": "http://ssd.jpl.nasa.gov/sbdb.cgi?sstr=3836744",
    "absolute_magnitude_h": 21.6,
    "estimated_diameter": {
        "kilometers": {
            "estimated_diameter_min": 0.1272198785,
            "estimated_diameter_max": 0.2844722965
        },
        "meters": {
            "estimated_diameter_min": 127.2198785394,
            "estimated_diameter_max": 284.4722965033
        },
        "miles": {
            "estimated_diameter_min": 0.0790507431,
            "estimated_diameter_max": 0.1767628354
        },
        "feet": {
            "estimated_diameter_min": 417.3880663071,
            "estimated_diameter_max": 933.3080892598
        }
    },
    "is_potentially_hazardous_asteroid": false,
    "close_approach_data": [
        {
            "close_approach_date": "2018-12-18",
            "close_approach_date_full": "2018-Dec-18 04:58",
            "epoch_date_close_approach": 1545109080000,
            "relative_velocity": {
                "kilometers_per_second": "21.1247216873",
                "kilometers_per_hour": "76048.9980741187",
                "miles_per_hour": "47253.8899422212"
            },
            "miss_distance": {
                "astronomical": "0.0894295154",
                "lunar": "34.7880814906",
                "kilometers": "13378465.018972198",
                "miles": "8312992.6841964124"
            },
            "orbiting_body": "Earth"
        },
        {
            "close_approach_date": "2019-02-21",
            "close_approach_date_full": "2019-Feb-21 15:56",
            "epoch_date_close_approach": 1550764560000,
            "relative_velocity": {
                "kilometers_per_second": "20.5737047152",
                "kilometers_per_hour": "74065.3369746498",
                "miles_per_hour": "46021.3200773873"
            },
            "miss_distance": {
                "astronomical": "0.0482856632",
                "lunar": "18.7831229848",
                "kilometers": "7223432.366257384",
                "miles": "4488432.7410005392"
            },
            "orbiting_body": "Venus"
        }
    ],
    "orbital_data": {
        "orbit_id": "4",
        "orbit_determination_date": "2019-01-21 07:51:18",
        "first_observation_date": "2018-12-08",
        "last_observation_date": "2018-12-19",
        "data_arc_in_days": 11,
        "observations_used": 104,
        "orbit_uncertainty": "9",
        "minimum_orbit_intersection": ".0619405",
        "jupiter_tisserand_invariant": "2.941",
        "epoch_osculation": "2458462.5",
        "eccentricity": ".7588032320970132",
        "semi_major_axis": "2.553320688415748",
        "inclination": "8.282626629395763",
        "ascending_node_longitude": "47.66960058298351",
        "orbital_period": "1490.240881296033",
        "perihelion_distance": ".6158526974657078",
        "perihelion_argument": "120.6478642245876",
        "aphelion_distance": "4.490788679365789",
        "perihelion_time": "2458514.588053188394",
        "mean_anomaly": "347.4170012491444",
        "mean_motion": ".2415716844963447",
        "equinox": "J2000",
        "orbit_class": {
            "orbit_class_type": "APO",
            "orbit_class_description": "Near-Earth asteroid orbits which cross the Earth’s orbit similar to that of 1862 Apollo",
            "orbit_class_range": "a (semi-major axis) > 1.0 AU; q (perihelion) < 1.017 AU"
        }
    },
    "is_sentry_object": false
}